MOLNIYA 1-80            
1 21118U 91012A   12041.88308109  .00001696  00000-0  10000-3 0   718
2 21118  61.6692 129.1032 7309838 266.3849  15.6940  2.00933166153777
MOLNIYA 3-40            
1 21196U 91022A   12041.56571753 -.00001253  00000-0  10000-3 0  5521
2 21196  61.5891 110.1120 7356161 269.2983  14.3370  2.00693293153073
MOLNIYA 1-81            
1 21426U 91043A   12041.22332838  .00000193  00000-0  10000-3 0  6568
2 21426  62.0314 106.8270 7238378 274.2188  13.7157  2.00612834151329
MOLNIYA 3-41            
1 21706U 91065A   12041.67329744 -.00000558  00000-0  25581-3 0  9563
2 21706  63.2975 259.3026 7290797 285.0883  10.5733  2.04362951149692
MOLNIYA 3-42            
1 22178U 92067A   12041.37677163  .00011514  00000-0  20122-2 0  1153
2 22178  62.1136  44.0132 7509152 275.9100  11.4771  2.01566933141606
MOLNIYA 1-86            
1 22671U 93035A   12042.57540524  .00227538 -30578-7  19687-3 0  8967
2 22671  62.6559 291.2560 5600752 285.8968  87.2299  4.82206524141779
MOLNIYA 3-45            
1 22729U 93049A   12041.20549283 -.00001326  00000-0  10000-3 0  3382
2 22729  61.7928 142.0052 7326474 263.8205  16.4827  2.00323051135676
MOLNIYA 1-87            
1 22949U 93079A   12040.58344450 -.00001166  00000-0  47532-2 0  8249
2 22949  62.2531 272.1793 7369324 255.1099  19.7026  2.00993346132932
MOLNIYA 1-88            
1 23420U 94081A   12042.03502461 -.00000698  00000-0  10110-2 0  3592
2 23420  62.0405  84.3255 7460379 275.0241  11.9030  2.02327333125999
MOLNIYA 3-47            
1 23642U 95042A   12042.10862564  .00000232  00000-0 -10392-2 0  8824
2 23642  62.0523 246.8910 7342002 260.4295  17.6163  2.00582885120985
MOLNIYA 1-89            
1 24273U 96045A   12039.58895752  .00544470  10290-4  27921-3 0  5525
2 24273  62.5410  94.2036 6843227 267.8750 317.7945  2.94878173120399
MOLNIYA 1-90            
1 24960U 97054A   12040.76917082  .00001283  00000-0  51838-3 0  3113
2 24960  62.3876 291.2090 7470970 257.6025  17.6620  2.04256349105451
MOLNIYA 1-91            
1 25485U 98054A   12041.81910839  .00000010  00000-0  10000-3 0  4919
2 25485  63.5898  65.1715 7280180 254.0572 175.3951  2.00611677 97930
MOLNIYA 3-50            
1 25847U 99036A   12042.39419134  .00000483  00000-0  10000-3 0  2044
2 25847  63.4643 163.3472 6858112 259.8778  22.5970  2.00595179 92292
MOLNIYA 3-51            
1 26867U 01030A   12042.52270042  .00000268  00000-0  00000+0 0  8000
2 26867  63.9322  85.7833 7309188 256.1302 274.0828  2.00535895 77401
MOLNIYA 1-92            
1 27707U 03011A   12042.69529872 -.00000358  00000-0  10000-3 0  1268
2 27707  64.6239  92.1342 7344889 247.5606  48.8013  2.00693349 64942
MOLNIYA 3-53            
1 27834U 03029A   12042.72308630 -.00000013  00000-0  00000+0 0   968
2 27834  64.6259  92.4801 7335903 247.9122  56.2986  2.00628518 63376
MOLNIYA 1-93            
1 28163U 04005A   12042.21528230  .00000179  00000-0  10000-3 0  7563
2 28163  64.7747 178.7077 6892981 259.5456 236.5861  2.00644107 58472
